ONEWEB-0168             
1 48068U 21025AC  24098.28702928  .00000296  00000+0  77523-3 0  9990
2 48068  87.8903 119.6358 0002068  93.4257 266.7109 13.13467953148424
ONEWEB-0173             
1 48069U 21025AD  24098.12673672  .00000404  00000+0  10709-2 0  9990
2 48069  87.8901 119.6780 0002125 106.9374 253.1988 13.13471086148647
ONEWEB-0171             
1 48070U 21025AE  24098.46794638 -.00000317  00000+0 -90310-3 0  9997
2 48070  87.8901 119.6452 0001921  97.1977 262.9371 13.13470573148507
ONEWEB-0172             
1 48071U 21025AF  24098.14259867 -.00000011  00000+0 -64452-4 0  9993
2 48071  87.8904 119.6766 0001921  99.0345 261.1002 13.13470080149358
ONEWEB-0174             
1 48072U 21025AG  24098.35368389  .00000354  00000+0  93336-3 0  9997
2 48072  87.8901 119.6489 0002143  90.7621 269.3753 13.13469611148709
ONEWEB-0175             
1 48073U 21025AH  24098.30606277 -.00000119  00000+0 -36147-3 0  9992
2 48073  87.8896 119.6509 0001607  98.5970 261.5341 13.13470581148359
ONEWEB-0177             
1 48074U 21025AJ  24098.31876167 -.00000212  00000+0 -61584-3 0  9998
2 48074  87.8897 119.6551 0002366 100.8831 259.2565 13.13471421148541
ONEWEB-0178             
1 48075U 21025AK  24098.33635995  .00000141  00000+0  35101-3 0  9998
2 48075  87.8904 119.6648 0002194  98.4555 261.6823 13.13472084148597
